{
  "type": "FeatureCollection",
  "features": [
    {
      "type": "Feature",
      "properties": {
        "norad_id": 34036,
        "name": "COSMOS 2251 DEB",
        "group": "cosmos-2251-debris",
        "lat": 40.94390962132678,
        "lon": -52.627513898993335,
        "alt_km": 571.3702103944788,
        "timestamp": "2025-12-16T10:53:45.864654+00:00",
        "meta_object_name": "COSMOS 2251 DEB",
        "meta_object_id": "1993-036HX",
        "meta_epoch": "2025-12-15T11:48:16.297920",
        "meta_mean_motion": 14.95207408,
        "meta_eccentricity": 0.00117703,
        "meta_inclination": 74.0192,
        "meta_ra_of_asc_node": 143.7108,
        "meta_arg_of_pericenter": 175.2274,
        "meta_mean_anomaly": 184.9024,
        "meta_ephemeris_type": 0,
        "meta_classification_type": "U",
        "meta_norad_cat_id": 34036,
        "meta_element_set_no": 999,
        "meta_rev_at_epoch": 88611,
        "meta_bstar": 0.0024574884,
        "meta_mean_motion_dot": 0.00027124,
        "meta_mean_motion_ddot": 0,
        "tle_line1": "1 34036U 93036HX  25349.49185530  .00027124  00000+0  24575-2 0  9995",
        "tle_line2": "2 34036  74.0192 143.7108 0011770 175.2274 184.9024 14.95207408886111"
      },
      "geometry": {
        "type": "Point",
        "coordinates": [
          -52.627513898993335,
          40.94390962132678
        ]
      }
    },
    {
      "type": "Feature",
      "properties": {
        "norad_id": 34037,
        "name": "COSMOS 2251 DEB",
        "group": "cosmos-2251-debris",
        "lat": 65.32319253536289,
        "lon": -174.84498845709604,
        "alt_km": 733.7882336822277,
        "timestamp": "2025-12-16T10:53:45.864664+00:00",
        "meta_object_name": "COSMOS 2251 DEB",
        "meta_object_id": "1993-036HY",
        "meta_epoch": "2025-12-15T21:00:18.163008",
        "meta_mean_motion": 14.34673256,
        "meta_eccentricity": 0.00519138,
        "meta_inclination": 74.0515,
        "meta_ra_of_asc_node": 44.704,
        "meta_arg_of_pericenter": 93.7582,
        "meta_mean_anomaly": 266.9508,
        "meta_ephemeris_type": 0,
        "meta_classification_type": "U",
        "meta_norad_cat_id": 34037,
        "meta_element_set_no": 999,
        "meta_rev_at_epoch": 87762,
        "meta_bstar": 0.00041239346,
        "meta_mean_motion_dot": 1.159e-05,
        "meta_mean_motion_ddot": 0,
        "tle_line1": "1 34037U 93036HY  25349.87521022  .00001159  00000+0  41239-3 0  9995",
        "tle_line2": "2 34037  74.0515  44.7040 0051913  93.7582 266.9508 14.34673256877620"
      },
      "geometry": {
        "type": "Point",
        "coordinates": [
          -174.84498845709604,
          65.32319253536289
        ]
      }
    },
    {
      "type": "Feature",
      "properties": {
        "norad_id": 34040,
        "name": "COSMOS 2251 DEB",
        "group": "cosmos-2251-debris",
        "lat": -12.71451301208814,
        "lon": -116.5512145798276,
        "alt_km": 1262.7899177892887,
        "timestamp": "2025-12-16T10:53:45.864674+00:00",
        "meta_object_name": "COSMOS 2251 DEB",
        "meta_object_id": "1993-036JB",
        "meta_epoch": "2025-12-15T21:40:38.833536",
        "meta_mean_motion": 13.68378942,
        "meta_eccentricity": 0.03431307,
        "meta_inclination": 73.9559,
        "meta_ra_of_asc_node": 60.636,
        "meta_arg_of_pericenter": 13.3603,
        "meta_mean_anomaly": 347.6318,
        "meta_ephemeris_type": 0,
        "meta_classification_type": "U",
        "meta_norad_cat_id": 34040,
        "meta_element_set_no": 999,
        "meta_rev_at_epoch": 83643,
        "meta_bstar": 0.00048969516,
        "meta_mean_motion_dot": 6.09e-06,
        "meta_mean_motion_ddot": 0,
        "tle_line1": "1 34040U 93036JB  25349.90322724  .00000609  00000+0  48970-3 0  9999",
        "tle_line2": "2 34040  73.9559  60.6360 0343130  13.3603 347.6318 13.68378942836439"
      },
      "geometry": {
        "type": "Point",
        "coordinates": [
          -116.5512145798276,
          -12.71451301208814
        ]
      }
    },
    {
      "type": "Feature",
      "properties": {
        "norad_id": 34045,
        "name": "COSMOS 2251 DEB",
        "group": "cosmos-2251-debris",
        "lat": 32.69679064162598,
        "lon": 113.44988122227866,
        "alt_km": 784.8147106529423,
        "timestamp": "2025-12-16T10:53:45.864684+00:00",
        "meta_object_name": "COSMOS 2251 DEB",
        "meta_object_id": "1993-036JG",
        "meta_epoch": "2025-12-15T22:45:53.194176",
        "meta_mean_motion": 14.34070637,
        "meta_eccentricity": 0.00258083,
        "meta_inclination": 74.0393,
        "meta_ra_of_asc_node": 304.9601,
        "meta_arg_of_pericenter": 27.529,
        "meta_mean_anomaly": 29.4139,
        "meta_ephemeris_type": 0,
        "meta_classification_type": "U",
        "meta_norad_cat_id": 34045,
        "meta_element_set_no": 999,
        "meta_rev_at_epoch": 88079,
        "meta_bstar": 9.2320669e-05,
        "meta_mean_motion_dot": 2.33e-06,
        "meta_mean_motion_ddot": 0,
        "tle_line1": "1 34045U 93036JG  25349.94853234  .00000233  00000+0  92321-4 0  9996",
        "tle_line2": "2 34045  74.0393 304.9601 0025808  27.5290  29.4139 14.34070637880790"
      },
      "geometry": {
        "type": "Point",
        "coordinates": [
          113.44988122227866,
          32.69679064162598
        ]
      }
    },
    {
      "type": "Feature",
      "properties": {
        "norad_id": 34046,
        "name": "COSMOS 2251 DEB",
        "group": "cosmos-2251-debris",
        "lat": -56.63384537887463,
        "lon": -22.219753299438445,
        "alt_km": 787.6726067104437,
        "timestamp": "2025-12-16T10:53:45.864694+00:00",
        "meta_object_name": "COSMOS 2251 DEB",
        "meta_object_id": "1993-036JH",
        "meta_epoch": "2025-12-15T19:23:55.569120",
        "meta_mean_motion": 14.46499076,
        "meta_eccentricity": 0.007444,
        "meta_inclination": 74.0397,
        "meta_ra_of_asc_node": 4.7437,
        "meta_arg_of_pericenter": 87.2467,
        "meta_mean_anomaly": 91.8214,
        "meta_ephemeris_type": 0,
        "meta_classification_type": "U",
        "meta_norad_cat_id": 34046,
        "meta_element_set_no": 999,
        "meta_rev_at_epoch": 87870,
        "meta_bstar": 0.00076919562,
        "meta_mean_motion_dot": 2.839e-05,
        "meta_mean_motion_ddot": 0,
        "tle_line1": "1 34046U 93036JH  25349.80828205  .00002839  00000+0  76920-3 0  9992",
        "tle_line2": "2 34046  74.0397   4.7437 0074440  87.2467  91.8214 14.46499076878702"
      },
      "geometry": {
        "type": "Point",
        "coordinates": [
          -22.219753299438445,
          -56.63384537887463
        ]
      }
    },
    {
      "type": "Feature",
      "properties": {
        "norad_id": 34050,
        "name": "COSMOS 2251 DEB",
        "group": "cosmos-2251-debris",
        "lat": -43.08765651552011,
        "lon": -160.84344972571745,
        "alt_km": 1057.918261924302,
        "timestamp": "2025-12-16T10:53:45.864705+00:00",
        "meta_object_name": "COSMOS 2251 DEB",
        "meta_object_id": "1993-036JM",
        "meta_epoch": "2025-12-15T19:11:43.914048",
        "meta_mean_motion": 13.96187414,
        "meta_eccentricity": 0.02145913,
        "meta_inclination": 74.0884,
        "meta_ra_of_asc_node": 4.8031,
        "meta_arg_of_pericenter": 68.3357,
        "meta_mean_anomaly": 109.0577,
        "meta_ephemeris_type": 0,
        "meta_classification_type": "U",
        "meta_norad_cat_id": 34050,
        "meta_element_set_no": 999,
        "meta_rev_at_epoch": 85474,
        "meta_bstar": 0.00058418268,
        "meta_mean_motion_dot": 9.53e-06,
        "meta_mean_motion_ddot": 0,
        "tle_line1": "1 34050U 93036JM  25349.79981382  .00000953  00000+0  58418-3 0  9998",
        "tle_line2": "2 34050  74.0884   4.8031 0214591  68.3357 109.0577 13.96187414854746"
      },
      "geometry": {
        "type": "Point",
        "coordinates": [
          -160.84344972571745,
          -43.08765651552011
        ]
      }
    },
    {
      "type": "Feature",
      "properties": {
        "norad_id": 34053,
        "name": "COSMOS 2251 DEB",
        "group": "cosmos-2251-debris",
        "lat": -68.67762098356906,
        "lon": -171.768957558863,
        "alt_km": 1123.9048506205081,
        "timestamp": "2025-12-16T10:53:45.864715+00:00",
        "meta_object_name": "COSMOS 2251 DEB",
        "meta_object_id": "1993-036JQ",
        "meta_epoch": "2025-12-15T19:14:31.754688",
        "meta_mean_motion": 13.49165958,
        "meta_eccentricity": 0.04223978,
        "meta_inclination": 73.8438,
        "meta_ra_of_asc_node": 237.2372,
        "meta_arg_of_pericenter": 25.2805,
        "meta_mean_anomaly": 336.8326,
        "meta_ephemeris_type": 0,
        "meta_classification_type": "U",
        "meta_norad_cat_id": 34053,
        "meta_element_set_no": 999,
        "meta_rev_at_epoch": 82725,
        "meta_bstar": 0.00067357442,
        "meta_mean_motion_dot": 7.13e-06,
        "meta_mean_motion_ddot": 0,
        "tle_line1": "1 34053U 93036JQ  25349.80175642  .00000713  00000+0  67357-3 0  9993",
        "tle_line2": "2 34053  73.8438 237.2372 0422397  25.2805 336.8326 13.49165958827251"
      },
      "geometry": {
        "type": "Point",
        "coordinates": [
          -171.768957558863,
          -68.67762098356906
        ]
      }
    }
  ]
}